[{"OBJECT_NAME":"ZIYUAN 1-02C (ZY 1-02C)","OBJECT_ID":"2011-079A","EPOCH":"2026-03-10T00:21:45.280224","MEAN_MOTION":14.38123973,"ECCENTRICITY":0.00053834,"INCLINATION":98.4167,"RA_OF_ASC_NODE":138.3624,"ARG_OF_PERICENTER":238.9134,"MEAN_ANOMALY":241.9717,"EPHEMERIS_TYPE":0,"CLASSIFICATION_TYPE":"U","NORAD_CAT_ID":38038,"ELEMENT_SET_NO":999,"REV_AT_EPOCH":74495,"BSTAR":0.00018700518,"MEAN_MOTION_DOT":5.24e-6,"MEAN_MOTION_DDOT":0},{"OBJECT_NAME":"SL-8 R\/B","OBJECT_ID":"1982-109B","EPOCH":"2026-03-09T22:45:48.565728","MEAN_MOTION":14.3862001,"ECCENTRICITY":0.00177419,"INCLINATION":73.9976,"RA_OF_ASC_NODE":253.0574,"ARG_OF_PERICENTER":18.5013,"MEAN_ANOMALY":93.3195,"EPHEMERIS_TYPE":0,"CLASSIFICATION_TYPE":"U","NORAD_CAT_ID":13649,"ELEMENT_SET_NO":999,"REV_AT_EPOCH":26940,"BSTAR":0.00013447599,"MEAN_MOTION_DOT":3.86e-6,"MEAN_MOTION_DDOT":0}]
